start=new Date('2022-05-19T00:00:00.000Z').valueOf();
sats=[{"APOAPSIS":"548.639","PERIAPSIS":"545.759","DECAY_DATE":null,"TLE_LINE1":"1 45583U 20025BE  22138.63790270  .00003256  00000-0  23736-3 0  9994","EPOCH":"2022-05-18T15:18:34.793280","SITE":"AFETR","OBJECT_TYPE":"PAYLOAD","MEAN_ELEMENT_THEORY":"SGP4","TLE_LINE2":"2 45583  53.0530 201.2807 0002079  41.9498 318.1650 15.06404816115844","LAUNCH_DATE":"2020-04-22","OBJECT_ID":"2020-025BE","RA_OF_ASC_NODE":"201.2807","GP_ID":"203903165","REV_AT_EPOCH":"11584","FILE":"3452356","EPHEMERIS_TYPE":"0","MEAN_MOTION_DOT":"0.00003256","REF_FRAME":"TEME","MEAN_MOTION":"15.06404816","SEMIMAJOR_AXIS":"6925.334","ELEMENT_SET_NO":"999","ARG_OF_PERICENTER":"41.9498","INCLINATION":"53.0530","TIME_SYSTEM":"UTC","BSTAR":"0.00023736000000","MEAN_MOTION_DDOT":"0.0000000000000","OBJECT_NAME":"STARLINK-1340","NORAD_CAT_ID":"45583","RCS_SIZE":"LARGE","CENTER_NAME":"EARTH","PERIOD":"95.592","CLASSIFICATION_TYPE":"U","COUNTRY_CODE":"US","ECCENTRICITY":"0.00020790","MEAN_ANOMALY":"318.1650"},{"TLE_LINE1":"1 45584U 20025BF  22138.56050711  .00000461  00000-0  49838-4 0  9993","EPOCH":"2022-05-18T13:27:07.814304","SITE":"AFETR","APOAPSIS":"548.268","PERIAPSIS":"546.181","DECAY_DATE":null,"MEAN_ELEMENT_THEORY":"SGP4","TLE_LINE2":"2 45584  53.0558 201.6453 0001507  64.5318 295.5827 15.06396323115233","OBJECT_TYPE":"PAYLOAD","GP_ID":"203876213","RA_OF_ASC_NODE":"201.6453","REV_AT_EPOCH":"11523","LAUNCH_DATE":"2020-04-22","OBJECT_ID":"2020-025BF","FILE":"3452059","EPHEMERIS_TYPE":"0","MEAN_MOTION_DOT":"0.00000461","REF_FRAME":"TEME","ARG_OF_PERICENTER":"64.5318","ELEMENT_SET_NO":"999","INCLINATION":"53.0558","TIME_SYSTEM":"UTC","MEAN_MOTION":"15.06396323","SEMIMAJOR_AXIS":"6925.360","OBJECT_NAME":"STARLINK-1343","BSTAR":"0.00004983800000","MEAN_MOTION_DDOT":"0.0000000000000","NORAD_CAT_ID":"45584","RCS_SIZE":"LARGE","ECCENTRICITY":"0.00015070","MEAN_ANOMALY":"295.5827","CENTER_NAME":"EARTH","PERIOD":"95.592","CLASSIFICATION_TYPE":"U","COUNTRY_CODE":"US"},{"REF_FRAME":"TEME","MEAN_MOTION_DOT":"0.00000514","FILE":"3452356","EPHEMERIS_TYPE":"0","REV_AT_EPOCH":"11582","GP_ID":"203902164","RA_OF_ASC_NODE":"201.5520","OBJECT_ID":"2020-025BH","LAUNCH_DATE":"2020-04-22","MEAN_ELEMENT_THEORY":"SGP4","TLE_LINE2":"2 45586  53.0562 201.5520 0001785  57.7665 302.3496 15.06400086115827","OBJECT_TYPE":"PAYLOAD","SITE":"AFETR","TLE_LINE1":"1 45586U 20025BH  22138.58261864  .00000514  00000-0  53401-4 0  9990","EPOCH":"2022-05-18T13:58:58.250496","PERIAPSIS":"545.977","DECAY_DATE":null,"APOAPSIS":"548.449","MEAN_ANOMALY":"302.3496","ECCENTRICITY":"0.00017850","COUNTRY_CODE":"US","CLASSIFICATION_TYPE":"U","CENTER_NAME":"EARTH","PERIOD":"95.592","RCS_SIZE":"LARGE","NORAD_CAT_ID":"45586","OBJECT_NAME":"STARLINK-1347","MEAN_MOTION_DDOT":"0.0000000000000","BSTAR":"0.00005340100000","TIME_SYSTEM":"UTC","ELEMENT_SET_NO":"999","INCLINATION":"53.0562","ARG_OF_PERICENTER":"57.7665","SEMIMAJOR_AXIS":"6925.348","MEAN_MOTION":"15.06400086"},{"SITE":"AFETR","TLE_LINE1":"1 45587U 20025BJ  22138.48678145  .00001113  00000-0  93618-4 0  9994","EPOCH":"2022-05-18T11:40:57.917280","DECAY_DATE":null,"PERIAPSIS":"546.065","APOAPSIS":"548.337","MEAN_ELEMENT_THEORY":"SGP4","TLE_LINE2":"2 45587  53.0555 201.9694 0001640  56.6366 303.4780 15.06404036115223","OBJECT_TYPE":"PAYLOAD","REV_AT_EPOCH":"11522","GP_ID":"203838943","RA_OF_ASC_NODE":"201.9694","OBJECT_ID":"2020-025BJ","LAUNCH_DATE":"2020-04-22","MEAN_MOTION_DOT":"0.00001113","REF_FRAME":"TEME","EPHEMERIS_TYPE":"0","FILE":"3451396","TIME_SYSTEM":"UTC","INCLINATION":"53.0555","ELEMENT_SET_NO":"999","ARG_OF_PERICENTER":"56.6366","SEMIMAJOR_AXIS":"6925.336","MEAN_MOTION":"15.06404036","OBJECT_NAME":"STARLINK-1349","MEAN_MOTION_DDOT":"0.0000000000000","BSTAR":"0.00009361800000","RCS_SIZE":"LARGE","NORAD_CAT_ID":"45587","MEAN_ANOMALY":"303.4780","ECCENTRICITY":"0.00016400","COUNTRY_CODE":"US","CLASSIFICATION_TYPE":"U","CENTER_NAME":"EARTH","PERIOD":"95.592"},{"SEMIMAJOR_AXIS":"6925.358","MEAN_MOTION":"15.06396858","TIME_SYSTEM":"UTC","ELEMENT_SET_NO":"999","INCLINATION":"53.0558","ARG_OF_PERICENTER":"85.0220","BSTAR":"0.00012598000000","MEAN_MOTION_DDOT":"0.0000000000000","OBJECT_NAME":"STARLINK-1360","RCS_SIZE":"LARGE","NORAD_CAT_ID":"45588","PERIOD":"95.592","CENTER_NAME":"EARTH","COUNTRY_CODE":"US","CLASSIFICATION_TYPE":"U","MEAN_ANOMALY":"275.0939","ECCENTRICITY":"0.00014900","APOAPSIS":"548.255","DECAY_DATE":null,"PERIAPSIS":"546.191","TLE_LINE1":"1 45588U 20025BK  22138.86274194  .00001595  00000-0  12598-3 0  9994","EPOCH":"2022-05-18T20:42:20.903616","SITE":"AFETR","OBJECT_TYPE":"PAYLOAD","TLE_LINE2":"2 45588  53.0558 200.2942 0001490  85.0220 275.0939 15.06396858115876","MEAN_ELEMENT_THEORY":"SGP4","LAUNCH_DATE":"2020-04-22","OBJECT_ID":"2020-025BK","REV_AT_EPOCH":"11587","GP_ID":"203903665","RA_OF_ASC_NODE":"200.2942","FILE":"3452356","EPHEMERIS_TYPE":"0","MEAN_MOTION_DOT":"0.00001595","REF_FRAME":"TEME"},{"FILE":"3452356","EPHEMERIS_TYPE":"0","REF_FRAME":"TEME","MEAN_MOTION_DOT":"0.00000168","LAUNCH_DATE":"2020-04-22","OBJECT_ID":"2020-025BL","REV_AT_EPOCH":"11583","RA_OF_ASC_NODE":"201.4920","GP_ID":"203903915","OBJECT_TYPE":"PAYLOAD","TLE_LINE2":"2 45589  53.0544 201.4920 0002260  46.6929 313.4248 15.06391321115832","MEAN_ELEMENT_THEORY":"SGP4","APOAPSIS":"548.805","PERIAPSIS":"545.675","DECAY_DATE":null,"TLE_LINE1":"1 45589U 20025BL  22138.59367921  .00000168  00000-0  30177-4 0  9995","EPOCH":"2022-05-18T14:14:53.883744","SITE":"AFETR","CENTER_NAME":"EARTH","PERIOD":"95.593","COUNTRY_CODE":"US","CLASSIFICATION_TYPE":"U","MEAN_ANOMALY":"313.4248","ECCENTRICITY":"0.00022600","RCS_SIZE":"LARGE","NORAD_CAT_ID":"45589","BSTAR":"0.00003017700000","MEAN_MOTION_DDOT":"0.0000000000000","OBJECT_NAME":"STARLINK-1364","SEMIMAJOR_AXIS":"6925.375","MEAN_MOTION":"15.06391321","TIME_SYSTEM":"UTC","ELEMENT_SET_NO":"999","ARG_OF_PERICENTER":"46.6929","INCLINATION":"53.0544"},{"MEAN_ANOMALY":"304.6193","ECCENTRICITY":"0.00015340","COUNTRY_CODE":"US","CLASSIFICATION_TYPE":"U","CENTER_NAME":"EARTH","PERIOD":"95.592","RCS_SIZE":"LARGE","NORAD_CAT_ID":"45590","OBJECT_NAME":"STARLINK-1365","MEAN_MOTION_DDOT":"0.0000000000000","BSTAR":"0.00011925000000","TIME_SYSTEM":"UTC","ARG_OF_PERICENTER":"55.4941","ELEMENT_SET_NO":"999","INCLINATION":"53.0541","SEMIMAJOR_AXIS":"6925.333","MEAN_MOTION":"15.06405164","REF_FRAME":"TEME","MEAN_MOTION_DOT":"0.00001495","EPHEMERIS_TYPE":"0","FILE":"3452356","REV_AT_EPOCH":"11543","GP_ID":"203902664","RA_OF_ASC_NODE":"231.4313","OBJECT_ID":"2020-025BM","LAUNCH_DATE":"2020-04-22","TLE_LINE2":"2 45590  53.0541 231.4313 0001534  55.4941 304.6193 15.06405164115433","MEAN_ELEMENT_THEORY":"SGP4","OBJECT_TYPE":"PAYLOAD","SITE":"AFETR","EPOCH":"2022-05-18T14:37:26.558688","TLE_LINE1":"1 45590U 20025BM  22138.60933517  .00001495  00000-0  11925-3 0  9992","DECAY_DATE":null,"PERIAPSIS":"546.135","APOAPSIS":"548.260"},{"REF_FRAME":"TEME","MEAN_MOTION_DOT":"-0.00000712","FILE":"3452356","EPHEMERIS_TYPE":"0","RA_OF_ASC_NODE":"190.3406","GP_ID":"203903920","REV_AT_EPOCH":"10910","OBJECT_ID":"2020-035B","LAUNCH_DATE":"2020-06-04","MEAN_ELEMENT_THEORY":"SGP4","TLE_LINE2":"2 45658  53.0538 190.3406 0001476  56.1682 303.9447 15.06382588109100","OBJECT_TYPE":"PAYLOAD","SITE":"AFETR","EPOCH":"2022-05-18T20:22:27.888960","TLE_LINE1":"1 45658U 20035B   22138.84893390 -.00000712  00000-0 -28928-4 0  9993","PERIAPSIS":"546.245","DECAY_DATE":null,"APOAPSIS":"548.289","ECCENTRICITY":"0.00014760","MEAN_ANOMALY":"303.9447","CLASSIFICATION_TYPE":"U","COUNTRY_CODE":"US","PERIOD":"95.593","CENTER_NAME":"EARTH","NORAD_CAT_ID":"45658","RCS_SIZE":"LARGE","OBJECT_NAME":"STARLINK-1441","MEAN_MOTION_DDOT":"0.0000000000000","BSTAR":"-0.00002892800000","ELEMENT_SET_NO":"999","ARG_OF_PERICENTER":"56.1682","INCLINATION":"53.0538","TIME_SYSTEM":"UTC","MEAN_MOTION":"15.06382588","SEMIMAJOR_AXIS":"6925.402"},{"NORAD_CAT_ID":"45659","RCS_SIZE":"LARGE","PERIOD":"95.592","CENTER_NAME":"EARTH","CLASSIFICATION_TYPE":"U","COUNTRY_CODE":"US","ECCENTRICITY":"0.00016180","MEAN_ANOMALY":"296.5524","MEAN_MOTION":"15.06400466","SEMIMAJOR_AXIS":"6925.347","ELEMENT_SET_NO":"999","INCLINATION":"53.0547","ARG_OF_PERICENTER":"63.5631","TIME_SYSTEM":"UTC","BSTAR":"0.00002674800000","MEAN_MOTION_DDOT":"0.0000000000000","OBJECT_NAME":"STARLINK-1442","LAUNCH_DATE":"2020-06-04","OBJECT_ID":"2020-035C","RA_OF_ASC_NODE":"190.3439","GP_ID":"203902669","REV_AT_EPOCH":"10909","FILE":"3452356","EPHEMERIS_TYPE":"0","MEAN_MOTION_DOT":"0.00000117","REF_FRAME":"TEME","APOAPSIS":"548.333","PERIAPSIS":"546.092","DECAY_DATE":null,"TLE_LINE1":"1 45659U 20035C   22138.85167226  .00000117  00000-0  26748-4 0  9992","EPOCH":"2022-05-18T20:26:24.483264","SITE":"AFETR","OBJECT_TYPE":"PAYLOAD","MEAN_ELEMENT_THEORY":"SGP4","TLE_LINE2":"2 45659  53.0547 190.3439 0001618  63.5631 296.5524 15.06400466109098"},{"MEAN_MOTION_DOT":"0.00005228","REF_FRAME":"TEME","EPHEMERIS_TYPE":"0","FILE":"3452356","REV_AT_EPOCH":"10910","RA_OF_ASC_NODE":"190.2993","GP_ID":"203902919","OBJECT_ID":"2020-035D","LAUNCH_DATE":"2020-06-04","TLE_LINE2":"2 45660  53.0531 190.2993 0001800  45.8835 314.2301 15.06411497109108","MEAN_ELEMENT_THEORY":"SGP4","OBJECT_TYPE":"PAYLOAD","SITE":"AFETR","TLE_LINE1":"1 45660U 20035D   22138.85998556  .00005228  00000-0  36947-3 0  9991","EPOCH":"2022-05-18T20:38:22.752384","DECAY_DATE":null,"PERIAPSIS":"545.932","APOAPSIS":"548.425","MEAN_ANOMALY":"314.2301","ECCENTRICITY":"0.00018000","COUNTRY_CODE":"US","CLASSIFICATION_TYPE":"U","CENTER_NAME":"EARTH","PERIOD":"95.591","RCS_SIZE":"LARGE","NORAD_CAT_ID":"45660","OBJECT_NAME":"STARLINK-1443","MEAN_MOTION_DDOT":"0.0000000000000","BSTAR":"0.00036947000000","TIME_SYSTEM":"UTC","INCLINATION":"53.0531","ELEMENT_SET_NO":"999","ARG_OF_PERICENTER":"45.8835","SEMIMAJOR_AXIS":"6925.313","MEAN_MOTION":"15.06411497"}];
